ONEWEB-0160             
1 48060U 21025U   24054.71026370  .00000031  00000+0  49954-4 0  9997
2 48060  87.8981 128.3417 0002860  95.3221 264.8235 13.13471683142706
ONEWEB-0163             
1 48061U 21025V   24054.46743396 -.00000164  00000+0 -48443-3 0  9994
2 48061  87.8979 128.3856 0001618 108.4400 251.6905 13.13468773142799
ONEWEB-0159             
1 48062U 21025W   24054.76104120 -.00000287  00000+0 -82199-3 0  9996
2 48062  87.8977 128.3120 0001816 111.9677 248.1646 13.13467608142752
ONEWEB-0164             
1 48063U 21025X   24054.59123049  .00000040  00000+0  75553-4 0  9991
2 48063  87.8976 128.3557 0001888  99.4734 260.6608 13.13471079142719
ONEWEB-0167             
1 48064U 21025Y   24054.46823743 -.00000162  00000+0 -47939-3 0  9999
2 48064  87.8980 128.3901 0001724 107.6499 252.4819 13.13471520142687
ONEWEB-0166             
1 48065U 21025Z   24054.56584622  .00000247  00000+0  64101-3 0  9993
2 48065  87.8974 128.3586 0001918 110.6909 249.4426 13.13469704142776
ONEWEB-0151             
1 48066U 21025AA  24054.71978742 -.00001217  00000+0 -33693-2 0  9992
2 48066  87.8976 128.3388 0001469 100.0033 260.1262 13.13460187142742
ONEWEB-0170             
1 48067U 21025AB  24054.57536171  .00000258  00000+0  67284-3 0  9999
2 48067  87.8978 128.3690 0002198  86.7657 273.3723 13.13471780142674
